IRIDIUM 166             
1 43570U 18061B   24005.56030645  .00000282  00000+0  93499-4 0  9994
2 43570  86.3952  70.2090 0002086  85.7901 274.3533 14.34218749285317
IRIDIUM 158             
1 43571U 18061C   24005.59836133  .00000260  00000+0  85926-4 0  9996
2 43571  86.3955  70.2023 0001847  95.7142 264.4265 14.34217750285288
IRIDIUM 165             
1 43572U 18061D   24005.55396314  .00000266  00000+0  87884-4 0  9996
2 43572  86.3955  70.2501 0001839  94.5680 265.5726 14.34218016285308
IRIDIUM 155             
1 43573U 18061E   24005.58567747  .00000282  00000+0  93565-4 0  9991
2 43573  86.3951  70.1501 0002320  88.7886 271.3576 14.34217582285274
IRIDIUM 154             
1 43574U 18061F   24005.56664745  .00000271  00000+0  89588-4 0  9994
2 43574  86.3955  70.2482 0002235 102.1518 257.9929 14.34217768285320
IRIDIUM 163             
1 43575U 18061G   24005.61738764  .00000238  00000+0  77846-4 0  9991
2 43575  86.3952  70.1700 0002225  97.3264 262.8185 14.34219195285305
IRIDIUM 156             
1 43576U 18061H   24005.59201789  .00000286  00000+0  94915-4 0  9990
2 43576  86.3953  70.1866 0001944  90.2184 269.9235 14.34216973285293
IRIDIUM 164             
1 43577U 18061J   24005.57299156  .00000239  00000+0  78333-4 0  9998
2 43577  86.3954  70.2212 0001909  96.4639 263.6775 14.34216783285339
